[{"OBJECT_NAME":"STARLINK-11549 [DTC]","OBJECT_ID":"2025-019D","EPOCH":"2026-03-09T02:07:48.942624","MEAN_MOTION":15.70886667,"ECCENTRICITY":0.00021825,"INCLINATION":42.9986,"RA_OF_ASC_NODE":309.8386,"ARG_OF_PERICENTER":251.2651,"MEAN_ANOMALY":108.798,"EPHEMERIS_TYPE":0,"CLASSIFICATION_TYPE":"U","NORAD_CAT_ID":62832,"ELEMENT_SET_NO":999,"REV_AT_EPOCH":6378,"BSTAR":0.001353286,"MEAN_MOTION_DOT":0.00177302,"MEAN_MOTION_DDOT":0},{"OBJECT_NAME":"FENGYUN 1C DEB","OBJECT_ID":"1999-025BHM","EPOCH":"2026-03-07T15:41:41.908992","MEAN_MOTION":15.52424712,"ECCENTRICITY":0.00874412,"INCLINATION":97.8053,"RA_OF_ASC_NODE":37.5391,"ARG_OF_PERICENTER":68.6008,"MEAN_ANOMALY":292.4545,"EPHEMERIS_TYPE":0,"CLASSIFICATION_TYPE":"U","NORAD_CAT_ID":31159,"ELEMENT_SET_NO":999,"REV_AT_EPOCH":844,"BSTAR":0.0020496514,"MEAN_MOTION_DOT":0.00149592,"MEAN_MOTION_DDOT":0}]
